STARLINK-1600           
1 46161U 20057AW  20252.91667824 -.00024758  00000-0 -23079-3 0  9998
2 46161  52.9975 335.2660 0001537  67.2841 159.4115 15.66242500  1778
STARLINK-1603           
1 46162U 20057AX  20252.91667824 -.00024804  00000-0 -23106-3 0  9992
2 46162  52.9995 335.2355 0001078  26.7993 215.6473 15.66261845  1775
STARLINK-1610           
1 46163U 20057AY  20252.91667824 -.00024260  00000-0 -22554-3 0  9995
2 46163  52.9996 335.2303 0001409  63.0579 184.6441 15.66296268  1779
STARLINK-1612           
1 46164U 20057AZ  20252.91667824 -.00024572  00000-0 -22879-3 0  9992
2 46164  52.9992 335.2210 0001438 330.2972 279.8557 15.66266779  1770
STARLINK-1615           
1 46166U 20057BB  20253.16667824 -.01092538  00000-0 -14336-1 0  9997
2 46166  52.9974 334.4013 0001420  43.1437 354.1368 15.60504883  4079
STARLINK-1626           
1 46167U 20057BC  20252.91667824 -.00011220  00000-0 -11686-3 0  9995
2 46167  52.9991 335.5968 0001780 315.1306 112.7636 15.62752397  1773
STARLINK-1632           
1 46170U 20057BF  20252.91667824 -.00029435  00000-0 -31657-3 0  9996
2 46170  52.9995 335.5885 0001099  42.0776  31.6730 15.62770327  1776
STARLINK-1633           
1 46171U 20057BG  20252.74977832 -.00000530  00000-0  29723-6 0  9999
2 46171  52.9983 336.0964 0001638  63.0069 297.1112 15.66196917  4008
STARLINK-1635           
1 46172U 20057BH  20252.91667824 -.00024448  00000-0 -22732-3 0  9991
2 46172  52.9998 335.2611 0001284  55.3715 176.8323 15.66298569  1778
FALCON 9 DEB            
1 46176U 20057BM  20252.69376836  .00619650  11629-4  39244-3 0  9992
2 46176  52.9899 332.6936 0067346 118.7771 242.0049 16.11659453  3395
