[{"OBJECT_NAME":"STARLINK-1600","OBJECT_ID":"2020-057AW","EPOCH":"2020-09-08T22:00:00.999936","MEAN_MOTION":15.662425,"ECCENTRICITY":0.0001537,"INCLINATION":52.9975,"RA_OF_ASC_NODE":335.266,"ARG_OF_PERICENTER":67.2841,"MEAN_ANOMALY":159.4115,"EPHEMERIS_TYPE":0,"CLASSIFICATION_TYPE":"U","NORAD_CAT_ID":46161,"ELEMENT_SET_NO":999,"REV_AT_EPOCH":177,"BSTAR":-0.00023079,"MEAN_MOTION_DOT":-0.00024758,"MEAN_MOTION_DDOT":0},{"OBJECT_NAME":"STARLINK-1603","OBJECT_ID":"2020-057AX","EPOCH":"2020-09-08T22:00:00.999936","MEAN_MOTION":15.66261845,"ECCENTRICITY":0.0001078,"INCLINATION":52.9995,"RA_OF_ASC_NODE":335.2355,"ARG_OF_PERICENTER":26.7993,"MEAN_ANOMALY":215.6473,"EPHEMERIS_TYPE":0,"CLASSIFICATION_TYPE":"U","NORAD_CAT_ID":46162,"ELEMENT_SET_NO":999,"REV_AT_EPOCH":177,"BSTAR":-0.00023106,"MEAN_MOTION_DOT":-0.00024804,"MEAN_MOTION_DDOT":0},{"OBJECT_NAME":"STARLINK-1610","OBJECT_ID":"2020-057AY","EPOCH":"2020-09-08T22:00:00.999936","MEAN_MOTION":15.66296268,"ECCENTRICITY":0.0001409,"INCLINATION":52.9996,"RA_OF_ASC_NODE":335.2303,"ARG_OF_PERICENTER":63.0579,"MEAN_ANOMALY":184.6441,"EPHEMERIS_TYPE":0,"CLASSIFICATION_TYPE":"U","NORAD_CAT_ID":46163,"ELEMENT_SET_NO":999,"REV_AT_EPOCH":177,"BSTAR":-0.00022554,"MEAN_MOTION_DOT":-0.0002426,"MEAN_MOTION_DDOT":0},{"OBJECT_NAME":"STARLINK-1612","OBJECT_ID":"2020-057AZ","EPOCH":"2020-09-08T22:00:00.999936","MEAN_MOTION":15.66266779,"ECCENTRICITY":0.0001438,"INCLINATION":52.9992,"RA_OF_ASC_NODE":335.221,"ARG_OF_PERICENTER":330.2972,"MEAN_ANOMALY":279.8557,"EPHEMERIS_TYPE":0,"CLASSIFICATION_TYPE":"U","NORAD_CAT_ID":46164,"ELEMENT_SET_NO":999,"REV_AT_EPOCH":177,"BSTAR":-0.00022879,"MEAN_MOTION_DOT":-0.00024572,"MEAN_MOTION_DDOT":0},{"OBJECT_NAME":"STARLINK-1615","OBJECT_ID":"2020-057BB","EPOCH":"2020-09-09T04:00:00.999936","MEAN_MOTION":15.60504883,"ECCENTRICITY":0.000142,"INCLINATION":52.9974,"RA_OF_ASC_NODE":334.4013,"ARG_OF_PERICENTER":43.1437,"MEAN_ANOMALY":354.1368,"EPHEMERIS_TYPE":0,"CLASSIFICATION_TYPE":"U","NORAD_CAT_ID":46166,"ELEMENT_SET_NO":999,"REV_AT_EPOCH":407,"BSTAR":-0.014336,"MEAN_MOTION_DOT":-0.01092538,"MEAN_MOTION_DDOT":0},{"OBJECT_NAME":"STARLINK-1626","OBJECT_ID":"2020-057BC","EPOCH":"2020-09-08T22:00:00.999936","MEAN_MOTION":15.62752397,"ECCENTRICITY":0.000178,"INCLINATION":52.9991,"RA_OF_ASC_NODE":335.5968,"ARG_OF_PERICENTER":315.1306,"MEAN_ANOMALY":112.7636,"EPHEMERIS_TYPE":0,"CLASSIFICATION_TYPE":"U","NORAD_CAT_ID":46167,"ELEMENT_SET_NO":999,"REV_AT_EPOCH":177,"BSTAR":-0.00011686,"MEAN_MOTION_DOT":-0.0001122,"MEAN_MOTION_DDOT":0},{"OBJECT_NAME":"STARLINK-1632","OBJECT_ID":"2020-057BF","EPOCH":"2020-09-08T22:00:00.999936","MEAN_MOTION":15.62770327,"ECCENTRICITY":0.0001099,"INCLINATION":52.9995,"RA_OF_ASC_NODE":335.5885,"ARG_OF_PERICENTER":42.0776,"MEAN_ANOMALY":31.673,"EPHEMERIS_TYPE":0,"CLASSIFICATION_TYPE":"U","NORAD_CAT_ID":46170,"ELEMENT_SET_NO":999,"REV_AT_EPOCH":177,"BSTAR":-0.00031657,"MEAN_MOTION_DOT":-0.00029435,"MEAN_MOTION_DDOT":0},{"OBJECT_NAME":"STARLINK-1633","OBJECT_ID":"2020-057BG","EPOCH":"2020-09-08T17:59:40.846848","MEAN_MOTION":15.66196917,"ECCENTRICITY":0.0001638,"INCLINATION":52.9983,"RA_OF_ASC_NODE":336.0964,"ARG_OF_PERICENTER":63.0069,"MEAN_ANOMALY":297.1112,"EPHEMERIS_TYPE":0,"CLASSIFICATION_TYPE":"U","NORAD_CAT_ID":46171,"ELEMENT_SET_NO":999,"REV_AT_EPOCH":400,"BSTAR":2.9723e-7,"MEAN_MOTION_DOT":-5.3e-6,"MEAN_MOTION_DDOT":0},{"OBJECT_NAME":"STARLINK-1635","OBJECT_ID":"2020-057BH","EPOCH":"2020-09-08T22:00:00.999936","MEAN_MOTION":15.66298569,"ECCENTRICITY":0.0001284,"INCLINATION":52.9998,"RA_OF_ASC_NODE":335.2611,"ARG_OF_PERICENTER":55.3715,"MEAN_ANOMALY":176.8323,"EPHEMERIS_TYPE":0,"CLASSIFICATION_TYPE":"U","NORAD_CAT_ID":46172,"ELEMENT_SET_NO":999,"REV_AT_EPOCH":177,"BSTAR":-0.00022732,"MEAN_MOTION_DOT":-0.00024448,"MEAN_MOTION_DDOT":0},{"OBJECT_NAME":"FALCON 9 DEB","OBJECT_ID":"2020-057BM","EPOCH":"2020-09-08T16:39:01.586304","MEAN_MOTION":16.11659453,"ECCENTRICITY":0.0067346,"INCLINATION":52.9899,"RA_OF_ASC_NODE":332.6936,"ARG_OF_PERICENTER":118.7771,"MEAN_ANOMALY":242.0049,"EPHEMERIS_TYPE":0,"CLASSIFICATION_TYPE":"U","NORAD_CAT_ID":46176,"ELEMENT_SET_NO":999,"REV_AT_EPOCH":339,"BSTAR":0.00039244,"MEAN_MOTION_DOT":0.0061965,"MEAN_MOTION_DDOT":1.1629e-5}]
